OBJECT_NAME,OBJECT_ID,EPOCH,MEAN_MOTION,ECCENTRICITY,INCLINATION,RA_OF_ASC_NODE,ARG_OF_PERICENTER,MEAN_ANOMALY,EPHEMERIS_TYPE,CLASSIFICATION_TYPE,NORAD_CAT_ID,ELEMENT_SET_NO,REV_AT_EPOCH,BSTAR,MEAN_MOTION_DOT,MEAN_MOTION_DDOT
SWARM A,2013-067B,2026-07-23T19:08:26.256768,15.50121304,.00029,87.3302,42.6254,79.7977,280.3611,0,U,39452,999,71192,.16588E-3,.9372E-4,0
SWARM C,2013-067C,2026-07-23T19:07:10.821792,15.50733966,.0003267,87.3303,41.2068,90.5744,269.5892,0,U,39453,999,71188,.16704E-3,.9643E-4,0
BRITE-CA1 (TORONTO),2014-033L,2026-07-23T19:05:13.902720,14.72736379,.0079115,97.9780,333.0575,158.8153,201.6362,0,U,40020,999,64760,.15383E-3,.978E-5,0
OCO 2,2014-035A,2026-07-23T19:47:32.338176,14.57137223,.0001395,98.2021,145.5618,80.9077,279.2279,0,U,40059,999,64138,.79877E-4,.315E-5,0
BRITE-PL2 (HEWELIUSZ),2014-049B,2026-07-23T17:24:01.816128,14.94707430,.0013547,97.9123,317.0145,354.4816,5.6253,0,U,40119,999,64690,.17545E-3,.1847E-4,0
MMS 1,2015-011A,2026-07-23T22:00:01.998720,0.28360720,.8300609,72.5783,348.3643,168.1986,85.2878,0,U,40482,999,138,0,-.1616E-4,0
MMS 2,2015-011B,2026-07-23T22:00:01.998720,0.28360679,.8303427,72.5824,348.3633,168.2013,85.2738,0,U,40483,999,138,0,-.1617E-4,0
MMS 3,2015-011C,2026-07-23T22:00:01.998720,0.28360669,.8301795,72.5820,348.3752,168.2091,85.2478,0,U,40484,999,135,0,-.1615E-4,0
MMS 4,2015-011D,2026-07-23T22:00:01.998720,0.28360717,.8301753,72.5775,348.3587,168.2189,85.2444,0,U,40485,999,138,0,-.1616E-4,0
ASTROSAT,2015-052A,2026-07-23T21:20:37.903776,14.82563131,.0008124,5.9962,251.1701,202.8966,157.0799,0,U,40930,999,58528,.10536E-3,.1539E-4,0
DAMPE,2015-078A,2026-07-23T20:07:48.794880,15.30869119,.0010589,97.4576,210.4893,312.5862,47.4485,0,U,41173,999,59015,.38512E-4,.1072E-4,0
PISAT,2016-059B,2026-07-23T10:46:24.060576,14.69041077,.0030579,97.8196,203.3469,89.7127,270.7583,0,U,41784,999,52506,.15817E-3,.887E-5,0
HXMT (HUIYAN),2017-034A,2026-07-23T18:28:40.488384,15.18749592,.0031108,43.0154,339.2968,14.9616,345.2146,0,U,42758,999,50322,.2948E-3,.6074E-4,0
FLYING LAPTOP,2017-042G,2026-07-23T20:16:01.960032,15.01353709,.0019102,97.4848,359.0085,5.0388,355.1025,0,U,42831,999,49195,.20927E-3,.2648E-4,0
ZHANGHENG 1-01 (CSES-1),2018-015C,2026-07-23T20:28:23.393856,15.20698377,.0017016,97.6900,11.2447,136.2844,223.9741,0,U,43194,999,47021,.35559E-3,.7775E-4,0
SALSAT,2020-068K,2026-07-23T10:36:40.859712,15.30258663,.0010091,97.8868,209.7289,164.5021,195.6529,0,U,46495,999,32090,.25456E-3,.7378E-4,0
IXPE,2021-121A,2026-07-23T20:00:01.999008,15.10550292,.0006814,0.2309,39.8562,273.3902,57.8085,0,U,49954,999,536,.52617E-3,.9876E-4,0
SMILE,2026-109A,2026-07-13T23:01:31.580256,0.47500629,.83137076,70.0512,206.6048,286.9544,0.1879,0,U,69123,999,6,0,.936E-5,0
