SWARM A                 
1 39452U 13067B   26204.79752612  .00009372  00000+0  16588-3 0  9994
2 39452  87.3302  42.6254 0002900  79.7977 280.3611 15.50121304711921
SWARM C                 
1 39453U 13067C   26204.79665303  .00009643  00000+0  16704-3 0  9996
2 39453  87.3303  41.2068 0003267  90.5744 269.5892 15.50733966711889
BRITE-CA1 (TORONTO)     
1 40020U 14033L   26204.79529980  .00000978  00000+0  15383-3 0  9996
2 40020  97.9780 333.0575 0079115 158.8153 201.6362 14.72736379647600
OCO 2                   
1 40059U 14035A   26204.82467984  .00000315  00000+0  79877-4 0  9993
2 40059  98.2021 145.5618 0001395  80.9077 279.2279 14.57137223641386
BRITE-PL2 (HEWELIUSZ)   
1 40119U 14049B   26204.72502102  .00001847  00000+0  17545-3 0  9990
2 40119  97.9123 317.0145 0013547 354.4816   5.6253 14.94707430646905
MMS 1                   
1 40482U 15011A   26204.91668980 -.00001616  00000+0  00000+0 0  9990
2 40482  72.5783 348.3643 8300609 168.1986  85.2878  0.28360720  1386
MMS 2                   
1 40483U 15011B   26204.91668980 -.00001617  00000+0  00000+0 0  9992
2 40483  72.5824 348.3633 8303427 168.2013  85.2738  0.28360679  1383
MMS 3                   
1 40484U 15011C   26204.91668980 -.00001615  00000+0  00000+0 0  9991
2 40484  72.5820 348.3752 8301795 168.2091  85.2478  0.28360669  1351
MMS 4                   
1 40485U 15011D   26204.91668980 -.00001616  00000+0  00000+0 0  9993
2 40485  72.5775 348.3587 8301753 168.2189  85.2444  0.28360717  1389
ASTROSAT                
1 40930U 15052A   26204.88932759  .00001539  00000+0  10536-3 0  9999
2 40930   5.9962 251.1701 0008124 202.8966 157.0799 14.82563131585284
DAMPE                   
1 41173U 15078A   26204.83875920  .00001072  00000+0  38512-4 0  9995
2 41173  97.4576 210.4893 0010589 312.5862  47.4485 15.30869119590158
PISAT                   
1 41784U 16059B   26204.44888959  .00000887  00000+0  15817-3 0  9991
2 41784  97.8196 203.3469 0030579  89.7127 270.7583 14.69041077525060
HXMT (HUIYAN)           
1 42758U 17034A   26204.76991306  .00006074  00000+0  29480-3 0  9998
2 42758  43.0154 339.2968 0031108  14.9616 345.2146 15.18749592503223
FLYING LAPTOP           
1 42831U 17042G   26204.84446713  .00002648  00000+0  20927-3 0  9995
2 42831  97.4848 359.0085 0019102   5.0388 355.1025 15.01353709491950
ZHANGHENG 1-01 (CSES-1) 
1 43194U 18015C   26204.85304854  .00007775  00000+0  35559-3 0  9992
2 43194  97.6900  11.2447 0017016 136.2844 223.9741 15.20698377470216
SALSAT                  
1 46495U 20068K   26204.44213958  .00007378  00000+0  25456-3 0  9993
2 46495  97.8868 209.7289 0010091 164.5021 195.6529 15.30258663320903
IXPE                    
1 49954U 21121A   26204.83335647  .00009876  00000+0  52617-3 0  9994
2 49954   0.2309  39.8562 0006814 273.3902  57.8085 15.10550292  5362
SMILE                   
1 69123U 26109A   26194.95939329  .00000936  00000+0  00000+0 0  9996
2 69123  70.0512 206.6048 8313707 286.9544   0.1879  0.47500629    65
